{
  "type": "FeatureCollection",
  "features": [
    {
      "type": "Feature",
      "properties": {
        "norad_id": 40118,
        "name": "GAOFEN-2",
        "group": "resource",
        "lat": 60.913657759212875,
        "lon": -111.70153886578714,
        "alt_km": 615.9747998650073,
        "timestamp": "2025-12-20T09:36:01.288773+00:00",
        "meta_object_name": "GAOFEN-2",
        "meta_object_id": "2014-049A",
        "meta_epoch": "2025-12-20T04:12:14.982624",
        "meta_mean_motion": 14.80619405,
        "meta_eccentricity": 0.0008709,
        "meta_inclination": 98.0381,
        "meta_ra_of_asc_node": 53.3569,
        "meta_arg_of_pericenter": 92.5598,
        "meta_mean_anomaly": 267.6611,
        "meta_ephemeris_type": 0,
        "meta_classification_type": "U",
        "meta_norad_cat_id": 40118,
        "meta_element_set_no": 999,
        "meta_rev_at_epoch": 61274,
        "meta_bstar": 1.4058e-05,
        "meta_mean_motion_dot": 5.4e-07,
        "meta_mean_motion_ddot": 0,
        "tle_line1": "1 40118U 14049A   25354.17517341  .00000054  00000+0  14058-4 0  9990",
        "tle_line2": "2 40118  98.0381  53.3569 0008709  92.5598 267.6611 14.80619405612745"
      },
      "geometry": {
        "type": "Point",
        "coordinates": [
          -111.70153886578714,
          60.913657759212875
        ]
      }
    },
    {
      "type": "Feature",
      "properties": {
        "norad_id": 40143,
        "name": "YAOGAN-21",
        "group": "resource",
        "lat": -7.823448858171402,
        "lon": -143.6113732576048,
        "alt_km": 504.6857861972585,
        "timestamp": "2025-12-20T09:36:01.288783+00:00",
        "meta_object_name": "YAOGAN-21",
        "meta_object_id": "2014-053A",
        "meta_epoch": "2025-12-20T04:03:03.063744",
        "meta_mean_motion": 15.23745526,
        "meta_eccentricity": 0.0008961,
        "meta_inclination": 97.175,
        "meta_ra_of_asc_node": 37.1592,
        "meta_arg_of_pericenter": 18.2704,
        "meta_mean_anomaly": 341.8854,
        "meta_ephemeris_type": 0,
        "meta_classification_type": "U",
        "meta_norad_cat_id": 40143,
        "meta_element_set_no": 999,
        "meta_rev_at_epoch": 62767,
        "meta_bstar": 6.862e-05,
        "meta_mean_motion_dot": 1.583e-05,
        "meta_mean_motion_ddot": 0,
        "tle_line1": "1 40143U 14053A   25354.16878546  .00001583  00000+0  68620-4 0  9991",
        "tle_line2": "2 40143  97.1750  37.1592 0008961  18.2704 341.8854 15.23745526627677"
      },
      "geometry": {
        "type": "Point",
        "coordinates": [
          -143.6113732576048,
          -7.823448858171402
        ]
      }
    },
    {
      "type": "Feature",
      "properties": {
        "norad_id": 40275,
        "name": "YAOGAN-22",
        "group": "resource",
        "lat": 49.87704669325939,
        "lon": 124.90996859686874,
        "alt_km": 1201.7133279968193,
        "timestamp": "2025-12-20T09:36:01.288794+00:00",
        "meta_object_name": "YAOGAN-22",
        "meta_object_id": "2014-063A",
        "meta_epoch": "2025-12-20T00:12:54.054144",
        "meta_mean_motion": 13.1552296,
        "meta_eccentricity": 0.0006016,
        "meta_inclination": 100.7427,
        "meta_ra_of_asc_node": 137.5312,
        "meta_arg_of_pericenter": 230.5566,
        "meta_mean_anomaly": 129.5013,
        "meta_ephemeris_type": 0,
        "meta_classification_type": "U",
        "meta_norad_cat_id": 40275,
        "meta_element_set_no": 999,
        "meta_rev_at_epoch": 53625,
        "meta_bstar": -3.4226e-06,
        "meta_mean_motion_dot": -4.8e-07,
        "meta_mean_motion_ddot": 0,
        "tle_line1": "1 40275U 14063A   25354.00895896 -.00000048  00000+0 -34226-5 0  9991",
        "tle_line2": "2 40275 100.7427 137.5312 0006016 230.5566 129.5013 13.15522960536259"
      },
      "geometry": {
        "type": "Point",
        "coordinates": [
          124.90996859686874,
          49.87704669325939
        ]
      }
    },
    {
      "type": "Feature",
      "properties": {
        "norad_id": 40298,
        "name": "ASNARO",
        "group": "resource",
        "lat": 57.48033911923378,
        "lon": -98.13446217854757,
        "alt_km": 497.73661265458395,
        "timestamp": "2025-12-20T09:36:01.288804+00:00",
        "meta_object_name": "ASNARO",
        "meta_object_id": "2014-070A",
        "meta_epoch": "2025-12-20T04:19:33.677760",
        "meta_mean_motion": 15.19636402,
        "meta_eccentricity": 0.000574,
        "meta_inclination": 97.3652,
        "meta_ra_of_asc_node": 69.9454,
        "meta_arg_of_pericenter": 102.1454,
        "meta_mean_anomaly": 258.0424,
        "meta_ephemeris_type": 0,
        "meta_classification_type": "U",
        "meta_norad_cat_id": 40298,
        "meta_element_set_no": 999,
        "meta_rev_at_epoch": 61682,
        "meta_bstar": 0.00025843,
        "meta_mean_motion_dot": 5.443e-05,
        "meta_mean_motion_ddot": 0,
        "tle_line1": "1 40298U 14070A   25354.18025090  .00005443  00000+0  25843-3 0  9999",
        "tle_line2": "2 40298  97.3652  69.9454 0005740 102.1454 258.0424 15.19636402616822"
      },
      "geometry": {
        "type": "Point",
        "coordinates": [
          -98.13446217854757,
          57.48033911923378
        ]
      }
    },
    {
      "type": "Feature",
      "properties": {
        "norad_id": 40310,
        "name": "YAOGAN-24",
        "group": "resource",
        "lat": -20.316479855605387,
        "lon": 128.5649218505876,
        "alt_km": 654.1341297931885,
        "timestamp": "2025-12-20T09:36:01.288813+00:00",
        "meta_object_name": "YAOGAN-24",
        "meta_object_id": "2014-072A",
        "meta_epoch": "2025-12-20T04:48:46.624032",
        "meta_mean_motion": 14.76191375,
        "meta_eccentricity": 0.001507,
        "meta_inclination": 98.1223,
        "meta_ra_of_asc_node": 125.3335,
        "meta_arg_of_pericenter": 115.6807,
        "meta_mean_anomaly": 244.5961,
        "meta_ephemeris_type": 0,
        "meta_classification_type": "U",
        "meta_norad_cat_id": 40310,
        "meta_element_set_no": 999,
        "meta_rev_at_epoch": 59731,
        "meta_bstar": 0.00011933,
        "meta_mean_motion_dot": 7.74e-06,
        "meta_mean_motion_ddot": 0,
        "tle_line1": "1 40310U 14072A   25354.20053963  .00000774  00000+0  11933-3 0  9996",
        "tle_line2": "2 40310  98.1223 125.3335 0015070 115.6807 244.5961 14.76191375597318"
      },
      "geometry": {
        "type": "Point",
        "coordinates": [
          128.5649218505876,
          -20.316479855605387
        ]
      }
    },
    {
      "type": "Feature",
      "properties": {
        "norad_id": 40336,
        "name": "CBERS 4",
        "group": "resource",
        "lat": 39.82882608919586,
        "lon": 45.13588503932098,
        "alt_km": 769.6629815105571,
        "timestamp": "2025-12-20T09:36:01.288823+00:00",
        "meta_object_name": "CBERS 4",
        "meta_object_id": "2014-079A",
        "meta_epoch": "2025-12-20T04:23:40.435296",
        "meta_mean_motion": 14.35520266,
        "meta_eccentricity": 0.0001803,
        "meta_inclination": 98.3304,
        "meta_ra_of_asc_node": 51.9456,
        "meta_arg_of_pericenter": 104.8594,
        "meta_mean_anomaly": 255.2792,
        "meta_ephemeris_type": 0,
        "meta_classification_type": "U",
        "meta_norad_cat_id": 40336,
        "meta_element_set_no": 999,
        "meta_rev_at_epoch": 57827,
        "meta_bstar": 4.052e-05,
        "meta_mean_motion_dot": 7.5e-07,
        "meta_mean_motion_ddot": 0,
        "tle_line1": "1 40336U 14079A   25354.18310689  .00000075  00000+0  40520-4 0  9998",
        "tle_line2": "2 40336  98.3304  51.9456 0001803 104.8594 255.2792 14.35520266578273"
      },
      "geometry": {
        "type": "Point",
        "coordinates": [
          45.13588503932098,
          39.82882608919586
        ]
      }
    },
    {
      "type": "Feature",
      "properties": {
        "norad_id": 40362,
        "name": "YAOGAN-26",
        "group": "resource",
        "lat": -24.682378401020365,
        "lon": -1.9308142300188225,
        "alt_km": 450.10681594951166,
        "timestamp": "2025-12-20T09:36:01.288833+00:00",
        "meta_object_name": "YAOGAN-26",
        "meta_object_id": "2014-088A",
        "meta_epoch": "2025-12-20T05:01:42.135744",
        "meta_mean_motion": 15.39552517,
        "meta_eccentricity": 0.0005156,
        "meta_inclination": 97.0632,
        "meta_ra_of_asc_node": 354.6187,
        "meta_arg_of_pericenter": 7.6837,
        "meta_mean_anomaly": 352.4488,
        "meta_ephemeris_type": 0,
        "meta_classification_type": "U",
        "meta_norad_cat_id": 40362,
        "meta_element_set_no": 999,
        "meta_rev_at_epoch": 61009,
        "meta_bstar": 0.00044481,
        "meta_mean_motion_dot": 0.00017435,
        "meta_mean_motion_ddot": 0,
        "tle_line1": "1 40362U 14088A   25354.20951546  .00017435  00000+0  44481-3 0  9990",
        "tle_line2": "2 40362  97.0632 354.6187 0005156   7.6837 352.4488 15.39552517610099"
      },
      "geometry": {
        "type": "Point",
        "coordinates": [
          -1.9308142300188225,
          -24.682378401020365
        ]
      }
    }
  ]
}